LEMUR-2-LEIA-PHILIP     
1 63246U 25052AN  26191.52575551  .00001175  00000+0  10603-3 0  9995
2 63246  97.6815  83.0813 0005042 130.3106 229.8557 14.97385737 72165
LEMUR-2-LIA-MARTIN      
1 63248U 25052AQ  26191.12148622  .00003770  00000+0  32410-3 0  9991
2 63248  97.6875  83.1935 0005413 102.3403 257.8426 14.98002545 72115
LEMUR-2-DELOITTE-1      
1 63259U 25052BB  26189.69813140  .00002354  00000+0  20556-3 0  9991
2 63259  97.6884  82.1233 0002308  66.8273 293.3192 14.97751965 71914
LEMUR-2-EMERSONROSE     
1 63261U 25052BD  26191.18713981  .00003381  00000+0  28198-3 0  9994
2 63261  97.6882  84.1911 0002796  68.6204 291.5317 14.99261714 72184
LEMUR-2-MARACHE-FRAN    
1 63262U 25052BE  26191.21328215  .00002533  00000+0  20688-3 0  9995
2 63262  97.6852  84.5777 0004672 274.4307  85.6383 15.00296503 72218
LEMUR-2-THEFALCONER     
1 63264U 25052BG  26190.12857510  .00002526  00000+0  22141-3 0  9999
2 63264  97.6850  82.1435 0000734  22.7964 337.3291 14.97544949 71973
LEMUR-2-UNTITLED-SC     
1 63351U 25061A   26191.36003445  .00002328  00000+0  13282-3 0  9999
2 63351  97.5647 166.5561 0018692 179.4862 180.6392 15.13626636 71096
LEMUR-2-ESPERANZA       
1 63352U 25061B   26191.60012572  .00002322  00000+0  13207-3 0  9999
2 63352  97.5654 166.8936 0018328 177.8917 182.2395 15.13735521 71133
LEMUR-2-KREMPEL-BRO2    
1 63353U 25061C   26191.35604734  .00002542  00000+0  14248-3 0  9999
2 63353  97.5701 167.2141 0019484 171.4566 188.7001 15.14158603 71118
LEMUR-2-THERMORAPTOR    
1 63354U 25061D   26191.60119683  .00002413  00000+0  13515-3 0  9995
2 63354  97.5705 167.5381 0019290 169.5482 190.6154 15.14243165 71155
LEMUR-2-NEUROSPICY      
1 63355U 25061E   26191.70322105  .00002130  00000+0  11946-3 0  9994
2 63355  97.5634 167.2476 0017012 171.9086 188.2423 15.14361279 71177
LEMUR-2-TILLINFINITY    
1 63356U 25061F   26191.79547453  .00002285  00000+0  12574-3 0  9998
2 63356  97.5619 167.6464 0018616 160.4787 199.7162 15.14946198 71215
LEMUR-2-KREMPEL-BRO1    
1 63357U 25061G   26191.70590419  .00002100  00000+0  11642-3 0  9991
2 63357  97.5620 167.4667 0019195 162.0688 198.1226 15.14752549 71198
LEMUR-2-LANGER2SPACE    
1 63358U 25061H   26191.47283575  .00002547  00000+0  14175-3 0  9997
2 63358  97.5624 167.0395 0016942 171.1205 189.0330 15.14445813 71143
LEMUR-2-BALTO           
1 63395U 25052BH  26191.13110204  .00003644  00000+0  29517-3 0  9994
2 63395  97.6934  84.4803 0005407 348.2785  11.8312 15.00335374 72204
LEMUR-2-KRISH           
1 64561U 25135AK  26191.27911249  .00003597  00000+0  32233-3 0  9991
2 64561  97.7764 306.0004 0001701  98.2728 261.8686 14.96425392 57376
